#dP2023  2 13  0  0  0.00000000      96 __u+U ITR14 FIT  IAC
## 2249  86400.00000000   900.00000000 59988 0.0000000000000
+  131   C01C02C03C04C05C06C07C08C09C10C11C12C13C14C16C19C20
+        C21C22C23C24C25C26C27C28C29C30C32C33C34C35C36C37C38
+        C39C40C41C42C43C44C45C46C59C60E01E02E03E04E05E07E08
+        E09E10E11E12E13E14E15E18E19E21E24E25E26E27E30E31E33
+        E34E36G01G02G03G04G05G06G07G08G09G10G11G12G13G14G15
+        G16G17G18G19G20G21G22G23G24G25G26G27G28G29G30G31G32
+        J02J03J04J07R01R02R03R04R05R06R07R08R09R10R11R12R13
+        R14R15R16R17R18R19R20R21R22R23R24R25  0  0  0  0  0
++        17 17 17 17 17 11 12 13 11 11 10 10 11 10 11  7  7
++         8  7  7  8  7  8  7  7  7  7  7  8  8  7  8  7  9
++         9  9  7  8  8  8  8  8  0 17  4  4  4  5  4  4  4
++         4  4  5  4  4  4  4  5  5  5  4  4  4  5  4  5  4
++         4  5  4  4  4  4  4  4  4  4  4  4  4  3  4  4  4
++         4  4  4  4  4  4  4  4  4  3  4  4  4  4  4  4  4
++         9  8 10  0  8  6  6  6  6 16  6  6  6 15  6  6  7
++         6  6  6  6  6  7  7  6  6 16  6  8  0  0  0  0  0
%c M  cc GPS ccc cccc cccc cccc cccc ccccc ccccc ccccc ccccc
%c cc cc ccc ccc cccc cccc cccc cccc ccccc ccccc ccccc ccccc
%f  0.0000000  0.000000000  0.00000000000  0.000000000000000
%f  0.0000000  0.000000000  0.00000000000  0.000000000000000
%i    0    0    0    0      0      0      0      0         0
%i    0    0    0    0      0      0      0      0         0
/* INFORMATION & ANALYSIS CENTER (IAC)            RAPID DATA
/* S/V CLOCKS ARE ALIGNED TO GNSS TIME                      
/* G:C1WC2W R:C1PC2P E:C1XC5X C:C2IC6I J:C1CC2S             
/* PCV:IGS20_2247 OL/AL:FES2004  NONE     YN ORB:CoN CLK:CoN
*  2023 02 13 15 30  0.00000000
PC01 -34311.794637  24465.714405   1057.247937    911.399062
PC02   4311.543129  41935.081543    335.110957   -563.530700
PC03 -14808.694881  39446.401691   1170.628849    216.747147
PC04 -39623.289460  14375.377947    629.426736    123.812764
PC05  21818.999259  36039.428650     70.071324    257.465614
PC06 -18441.568024  27638.347870 -26099.206954   -191.222766
PC07  -8244.836953  40266.067234  -8956.486064    119.324231
PC08    406.716240  24319.443805  34490.187625    526.168838
PC09 -10141.106251  26777.963084 -30731.753234    660.258503
PC10  -2808.069194  41679.869422  -2811.003851     12.090674
PC11  -3736.883982 -15327.096957 -22950.975045   -122.699169
PC12  14594.573881 -19366.261197 -13770.124894    450.697235
PC13   5534.709406  27486.579605  31747.729515    206.893415
PC14  -6753.242819 -25788.427803   8365.434185    475.990262
PC16 -20226.611856  27158.319200 -25086.610034    163.196203
PC19  11818.791316  19354.270899 -16222.397922   -894.606980
PC20   1610.986983  27833.150011   -808.915530    725.326156
PC21  10380.845456 -20148.664727 -16272.838120   -911.128765
PC22  15719.774962   -740.576945 -23041.928577   -634.818602
PC23 -25473.312969  -5312.252919 -10076.064110   -877.292738
PC24  -3342.394542 -18558.144176  20542.289897   -415.399180
PC25 -21778.098128 -16154.715705   6531.338144     71.431468
PC26  14105.313971 -10392.440897  21709.713317    -78.236947
PC27 -20761.886280  17634.100823   6086.104472     96.234332
PC28 -24980.109937   6782.544912 -10427.370188     70.060827
PC29  14492.014943   8870.571361  22130.513328     80.595937
PC30  -4794.550460  19451.722450  19431.608440      1.159724
PC32 -10300.401532  20131.337211  16365.376569   -622.995807
PC33 -11937.150407 -19372.753983  16171.235505   -873.395675
PC34   3453.260280 -19105.975544 -20044.669957    105.322776
PC35  24538.616287  -6660.761439  11442.457885    681.153671
PC36  20991.919011  16940.358024  -7157.136243   -627.726279
PC37 -15546.117199   9103.485946 -21300.552968   -822.024400
PC38  -9230.092274  21475.182814  35140.494763     58.546463
PC39 -25249.322707  27645.765504 -19569.957695     -1.800114
PC40 -13452.703030  37905.949840 -12266.469674    -15.016469
PC41 -15811.219844     44.603298  23050.340565   -607.688666
PC42   -884.227225 -27899.805031   -367.195611   -839.003106
PC43 -13863.013397  -9598.878070 -22247.552293      6.992908
PC44  20152.343080 -18349.378084  -5915.892097     14.241972
PC45  25381.592677   5082.300634  10452.552592    -59.967837
PC46   5312.099761  18893.992159 -19863.300329    -33.166567
PC59      0.000000      0.000000      0.000000 999999.999999
PC60   7271.955136  41506.196511   1460.229820     -0.523763
PE01  -1610.691552 -24655.438649  16284.649952   -600.523636
PE02   1982.730795  24861.348409 -15970.703429     20.576569
PE03  -7905.860656  27097.383938  -8901.943249   -649.654583
PE04  -7647.987621 -18170.052649  22085.191024    -57.475953
PE05 -19184.983332  20280.611449   9846.764066    -95.713937
PE07  19049.458598  -1604.056375 -22594.742249    -22.640189
PE08   7455.096074  18210.576269 -22109.835001    -35.478729
PE09 -18863.059008   1482.915489  22762.872512   -834.801121
PE10 -24972.603768  -8202.795823 -13614.228423   -512.131972
PE11 -29327.288249  -1828.380514  -3661.713439    869.797690
PE12 -17158.691402 -12893.746887 -20391.522251   -420.861658
PE13  29150.885640   2326.099597   4549.704835     -0.236198
PE14 -17206.444571  17869.953767  -4144.243113    141.150166
PE15  16811.976619  12940.221892  20646.674530     -0.879877
PE18  12904.251330 -27956.795989  -7697.465055   -395.178859
PE19   9996.893780 -27090.483710   6497.731434  -3243.909386
PE21  12502.708746 -11480.524949  24241.877795   -511.947844
PE24 -20762.805337 -10124.454952 -18511.289771  -1112.142832
PE25 -12707.448980  11189.270715 -24281.724566   -599.307407
PE26  23709.630271  -9990.107032 -14624.689471     17.307184
PE27  20692.365002   9282.003666  19027.440771   -511.404979
PE30  16178.967618  24719.428125   2006.510571  -1239.536389
PE31 -16607.437276 -24349.292550  -2666.632013   -515.939258
PE33   5335.562891 -15829.745568 -24426.095339   -452.081906
PE34  -5128.100757  15861.062173  24459.350210    -29.907846
PE36 -24271.834587   9529.291725  14028.864515    -11.878342
PG01 -13293.113032 -13410.247845 -19140.501262    212.963297
PG02  16383.111779  11709.420371  17825.484397   -621.096956
PG03 -12769.953056 -23339.233739    883.647734   -363.560764
PG04  -5829.088850 -16265.199236  20148.624907    -28.317020
PG05   2660.015748  22791.276852  13103.972913   -115.764967
PG06 -23530.403714   5981.691776  10948.017337    571.929874
PG07 -24243.068305  -7591.070479   8994.954357    241.699545
PG08   3490.213461 -22917.298397 -12656.181273   -108.325684
PG09 -14400.931026  -5588.599186  21533.975698   -218.927128
PG10  15990.586069   -123.601810 -21090.207171    -24.551894
PG11 -12504.953219  12566.486134  19778.549581   -103.236563
PG12  10022.047428  24649.821874   -854.102877   -339.889119
PG13 -11863.976226  22335.630172  -7955.246249    475.478858
PG14 -17205.258735  -2663.894750 -20086.881031    -28.017836
PG15    -55.161182  23255.057596 -13029.940320     13.123072
PG16   2017.256656 -21660.877962  14611.233450   -520.242780
PG17 -19270.669799   7938.097301 -16089.643274    699.782880
PG18  25638.328897   5109.903227   5113.478991   -139.097343
PG19 -19702.490864  15673.106928  -8240.394695    277.199658
PG20  -5612.717264  16582.576161  20064.349316    450.945418
PG21  -5067.081151 -14555.995267 -21129.066600    153.971714
PG22  18068.263784 -18748.061887  -4313.631325    426.269197
PG23  18413.210177  11475.242763 -15414.332883      5.996102
PG24   9408.126473  14742.482837 -20440.764769    -72.142728
PG25  16423.350607  19567.546188   7463.688317    419.775793
PG26  11139.916822 -11568.614261  21003.467323    241.452383
PG27  12234.997636 -23149.222768  -3020.095066    103.284775
PG28  24328.680187  -5928.406554   8813.684422     10.829291
PG29  11437.271989   9430.333743  21988.513084   -585.911346
PG30 -26438.771251   1102.293014  -3475.618626   -530.427012
PG31  22782.499534  -6998.704678  12017.297698   -209.134775
PG32  18998.253754 -11146.267835 -14529.438329   -394.996161
PJ02 -21091.691277  21601.536237 -24860.876018     -0.889168
PJ03 -30271.635966  27540.847788  15137.316842      0.220511
PJ04 -26321.821375  29403.847636  20999.750080     94.275771
PJ07      0.000000      0.000000      0.000000 999999.999999
PR01   6710.888252  16634.256860 -18128.078685     22.969566
PR02  11195.595978  -2683.772027 -22708.907412    -23.283074
PR03   9273.909542 -19575.274125 -13373.781849     72.417120
PR04   2397.639204 -25193.986238   3161.849003    175.633928
PR05  -5786.485057 -17131.509536  17992.734463    107.693088
PR06 -11335.272585   4356.892074  22428.175173    -95.262185
PR07  -9109.342340  20150.293410  12802.830305     49.854623
PR08  -2237.709238  25219.728083  -3182.713356    -69.454933
PR09 -20231.742796  -6388.589277 -14204.753253    103.893951
PR10 -10575.927449   5544.866170 -22545.460235    -90.517197
PR11   5998.978538  15951.707964 -18969.487432     -4.285408
PR12  19156.224795  16634.022042  -2737.565268     24.977854
PR13  20548.562602   7920.248796  12855.917700    -31.987810
PR14   9243.412400  -6833.972404  22774.069059     24.337605
PR15  -6778.335638 -16478.366293  18264.869441     91.100612
PR16 -19155.770054 -16572.795852   3137.895015     11.224904
PR17  20308.207927 -12413.179673  -9206.200332    604.527466
PR18   6405.813266 -12609.948892 -21194.176495     66.612624
PR19  -9321.113808  -7363.375987 -22570.109222   -221.777286
PR20 -23523.662310   3846.601958  -9137.743359    -87.631712
PR21 -19345.594780  12615.681242  10810.993713   -373.037753
PR22  -5909.692548  12629.020065  21392.942820     70.817960
PR23  13954.341553   4722.220853  20816.615169    -72.506627
PR24  23588.101664  -4742.486150   8503.715800    146.534178
PR25 -20971.162395  11470.311931   8892.462835     54.968722
EOF
